SARAL                   
1 39086U 13009A   23060.50947416  .00000271  00000+0  11684-3 0  9998
2 39086  98.5460 247.3642 0000993 215.6721 144.4396 14.32142865523279
GAOFEN 1                
1 39150U 13018A   23060.48605210  .00002603  00000+0  37990-3 0  9999
2 39150  98.0410 131.3755 0022226 173.6746 186.4750 14.76469739530662
VNREDSAT 1              
1 39160U 13021B   23060.39757880  .00002197  00000+0  43795-3 0  9993
2 39160  98.0492 135.0625 0001227  88.9248 271.2085 14.62972538524188
ARIRANG-5 (KOMPSAT-5)   
1 39227U 13042A   23060.50699645 -.00005449  00000+0 -38552-3 0  9997
2 39227  97.6305 247.9822 0000061 320.6019  91.9287 15.04489428522939
SKYSAT-A                
1 39418U 13066C   23060.28093135  .00005341  00000+0  41637-3 0  9999
2 39418  97.5385 129.3299 0033567 112.3015 248.1774 15.01150283507164
DUBAISAT-2              
1 39419U 13066D   23060.38774210  .00006119  00000+0  54750-3 0  9995
2 39419  97.4235  84.2187 0014360 131.4379 228.8078 14.96112023505598
GPM-CORE                
1 39574U 14009C   23060.45957360  .00041427  00000+0  56490-3 0  9996
2 39574  64.9975  33.4378 0007980 269.6126  90.4107 15.57249630511600
SENTINEL-1A             
1 39634U 14016A   23060.39052457  .00000864  00000+0  19306-3 0  9992
2 39634  98.1823  69.2644 0001307 101.7318 258.4039 14.59201318474494
KAZEOSAT 1              
1 39731U 14024A   23060.43353035  .00000926  00000+0  29555-3 0  9996
2 39731  98.4368 138.4517 0001078 105.4031 254.7271 14.42008271465127
ALOS-2                  
1 39766U 14029A   23060.47735144 -.00001810  00000+0 -23561-3 0  9994
2 39766  97.9187 158.9268 0001580 100.9212 259.2090 14.79468995473634
KAZEOSAT 2              
1 40010U 14033A   23060.53505217  .00001564  00000+0  20290-3 0  9996
2 40010  97.6895 301.2008 0012644 321.3759  38.6551 14.82092299470524
HODOYOSHI-4             
1 40011U 14033B   23060.50933745  .00003308  00000+0  41826-3 0  9991
2 40011  97.6427 287.6386 0025288 318.3135  41.6164 14.82273574470165
DEIMOS-2                
1 40013U 14033D   23060.51840882  .00004065  00000+0  46931-3 0  9996
2 40013  97.7363 315.8203 0001814  53.1728 306.9616 14.86150286471360
HODOYOSHI-3             
1 40015U 14033F   23059.52995220  .00001653  00000+0  22609-3 0  9990
2 40015  97.6173 265.3800 0036292 349.5534  10.4920 14.79364204469166
SPOT 7                  
1 40053U 14034A   23060.47983061  .00001167  00000+0  26089-3 0  9995
2 40053  98.2158 128.9517 0001044 114.5889 245.5420 14.58565886461554
SKYSAT-B                
1 40072U 14037D   23060.48716666  .00001913  00000+0  24700-3 0  9992
2 40072  98.3758 306.2489 0005588 199.3276 160.7724 14.82245763467398
WORLDVIEW-3 (WV-3)      
1 40115U 14048A   23060.21947364  .00002527  00000+0  29976-3 0  9996
2 40115  97.8267 136.1779 0002651  68.2845 291.8652 14.85378401463246
GAOFEN 2                
1 40118U 14049A   23060.43506098  .00002893  00000+0  38211-3 0  9997
2 40118  97.7277 125.1499 0005865 188.4617 171.6494 14.80749465461129
YAOGAN 21               
1 40143U 14053A   23060.54117333  .00018524  00000+0  77042-3 0  9995
2 40143  97.3174 127.1820 0013761  39.5617  72.6015 15.23739575471690
YAOGAN 22               
1 40275U 14063A   23059.80519258  .00000000  00000+0  12165-3 0  9996
2 40275 100.5901 185.1059 0006339  29.7018 330.4456 13.15452186401458
ASNARO                  
1 40298U 14070A   23060.51749632  .00024477  00000+0  11513-2 0  9999
2 40298  97.4458 144.5351 0006774 152.6935 326.9424 15.19540627461236
HODOYOSHI-1             
1 40299U 14070B   23060.51329678  .00019057  00000+0  64167-3 0  9996
2 40299  97.2093 126.1066 0009807 305.3824 167.4915 15.30763767462322
QSAT-EOS                
1 40301U 14070D   23060.51483683  .00055827  00000+0  97391-3 0  9997
2 40301  97.1702 129.2495 0013360 250.0140 224.4875 15.50433236463101
YAOGAN 23               
1 40305U 14071A   23060.53546356  .00022810  00000+0  87780-3 0  9998
2 40305  97.6403  20.9224 0002556  83.3973  51.2471 15.26389299459690
YAOGAN 24               
1 40310U 14072A   23060.40165682  .00002383  00000+0  35079-3 0  9997
2 40310  97.9966 182.9597 0016853 168.3318 191.8282 14.76246458446147
CBERS 4                 
1 40336U 14079A   23060.48386692  .00000448  00000+0  17086-3 0  9994
2 40336  98.4533 134.6765 0001364  92.7248 267.4095 14.35461205431280
RESURS P2               
1 40360U 14087A   23060.52950231  .00018730  00000+0  46017-3 0  9990
2 40360  97.1866 145.6267 0007601 234.2504 305.8072 15.40675227457771
YAOGAN 26               
1 40362U 14088A   23060.49394507  .00019150  00000+0  79713-3 0  9993
2 40362  97.1114 102.5760 0008501 260.8363 235.2276 15.23754664455164
SMAP                    
1 40376U 15003A   23059.90819572  .00001154  00000+0  23239-3 0  9991
2 40376  98.1301  68.0025 0001373  95.7427 264.3932 14.63382604431490
KOMPSAT-3A              
1 40536U 15014A   23060.41372804  .00011950  00000+0  67810-3 0  9999
2 40536  97.5596   4.9776 0001238 202.0812 306.3522 15.13101633437877
SENTINEL-2A             
1 40697U 15028A   23060.46622230  .00000703  00000+0  28489-3 0  9991
2 40697  98.5633 136.5152 0001063 102.3274 257.8033 14.30821734401606
GAOFEN 8                
1 40701U 15030A   23060.52054082  .00022782  00000+0  95421-3 0  9992
2 40701  97.5907 202.5886 0006144 229.0210 195.5866 15.23533248427529
CARBONITE 1 (CBNT-1)    
1 40718U 15032D   23060.38808103  .00003942  00000+0  57706-3 0  9998
2 40718  97.7059 278.1605 0015123 262.8255  97.1223 14.76097604411318
YAOGAN 27               
1 40878U 15040A   23060.50635930 -.00000004  00000+0  10000-3 0  9997
2 40878 100.1063  86.1425 0009098 111.8495 248.3605 13.15987915360849
GAOFEN 9-01             
1 40894U 15047A   23060.40077057  .00002377  00000+0  34418-3 0  9994
2 40894  97.7859 127.0729 0031980 106.8205 253.6526 14.76673825402096
LAPAN-A2                
1 40931U 15052B   23060.53560777  .00002359  00000+0  23701-3 0  9995
2 40931   5.9901 134.8455 0012842 210.6441 149.3962 14.77060803401418
YAOGAN 28               
1 41026U 15064A   23060.52639713  .00016461  00000+0  69210-3 0  9994
2 41026  97.5844 210.5317 0006017 189.8120 235.4469 15.23473890407370
YAOGAN 29               
1 41038U 15069A   23060.42954631  .00001487  00000+0  19828-3 0  9992
2 41038  98.0643  66.9556 0001555  53.9313 306.2047 14.81147196392328
KENT RIDGE 1            
1 41167U 15077B   23060.43318826  .00005283  00000+0  26615-3 0  9995
2 41167  14.9789 134.7318 0011488 326.2123 128.3153 15.11194292398162
TELEOS 1                
1 41169U 15077D   23060.29976214  .00014467  00000+0  68756-3 0  9998
2 41169  14.9764  94.4598 0007951  39.3864 320.7037 15.16290998398516
GAOFEN 4                
1 41194U 15083A   23060.05652060 -.00000340  00000+0  00000+0 0  9997
2 41194   0.1291 141.7681 0001568 202.7998 300.0543  1.00272871 26415
JASON-3                 
1 41240U 16002A   23060.11178762 -.00000044  00000+0  75857-4 0  9998
2 41240  66.0404 115.9911 0007914 272.3795  87.6314 12.80930164332928
SENTINEL-3A             
1 41335U 16011A   23060.36700664  .00000283  00000+0  13486-3 0  9995
2 41335  98.6192 128.9521 0001064  96.7315 263.3986 14.26741643366407
ZIYUAN 3-2 (ZY 3-2)     
1 41556U 16033A   23060.45720414  .00015985  00000+0  71553-3 0  9993
2 41556  97.5038 133.9132 0001207  67.4185  49.7040 15.21357591374971
NUSAT-1 (FRESCO)        
1 41557U 16033B   23060.49589587  .00066532  00000+0  13424-2 0  9998
2 41557  97.3834 165.2256 0009400 175.8276 245.0691 15.46251129376913
NUSAT-2 (BATATA)        
1 41558U 16033C   23060.47798821  .00072292  00000+0  13646-2 0  9996
2 41558  97.4109 172.4459 0008688 166.6199 261.5508 15.48168930377228
CARTOSAT-2C             
1 41599U 16040A   23060.41994237 -.00037189  00000+0 -17764-2 0  9995
2 41599  97.4523 122.2410 0012088   5.7711 115.2412 15.19087182370943
SKYSAT-C1               
1 41601U 16040C   23060.38714837  .00022160  00000+0  56309-3 0  9991
2 41601  97.1251 134.1128 0001002 119.1875 240.9472 15.39641633373501
LAPAN-A3                
1 41603U 16040E   23060.46804249  .00004794  00000+0  21432-3 0  9991
2 41603  97.1793  90.9858 0012226 344.7241 153.6535 15.21702197371104
BIROS                   
1 41604U 16040F   23060.13892522  .00010940  00000+0  41131-3 0  9995
2 41604  97.1794  99.7873 0009379 309.8265  50.2148 15.27280438371593
GAOFEN 3                
1 41727U 16049A   23060.44423832  .00000395  00000+0  13299-3 0  9995
2 41727  98.4093  70.0283 0000603 115.6197 244.5063 14.42221501345137
SKYSAT-C4               
1 41771U 16058B   23060.14800775  .00018598  00000+0  47653-3 0  9991
2 41771  97.0831 122.4297 0002289 155.0164 205.1194 15.39418866360428
SKYSAT-C5               
1 41772U 16058C   23060.43891651  .00013483  00000+0  46856-3 0  9999
2 41772  97.2304 121.9963 0001887  58.3719 301.7706 15.29854157359015
SKYSAT-C2               
1 41773U 16058D   23060.40103930  .00021570  00000+0  55254-3 0  9991
2 41773  97.0850 123.0725 0002107 142.0463 218.0932 15.39396944360482
SKYSAT-C3               
1 41774U 16058E   23060.17705979  .00026980  00000+0  56898-3 0  9992
2 41774  97.0838 124.9024 0000959 143.6442 216.4873 15.45200921360581
ALSAT 1B                
1 41785U 16059C   23060.43047881  .00001385  00000+0  23716-3 0  9990
2 41785  97.8765 101.4379 0010974 124.4686 235.7553 14.70269847343576
PATHFINDER 1            
1 41787U 16059E   23060.10534595  .00002541  00000+0  48625-3 0  9990
2 41787  97.8815  98.4948 0031067  75.8192 284.6456 14.64359059343290
SCATSAT 1               
1 41790U 16059H   23060.14477659  .00000534  00000+0  14618-3 0  9990
2 41790  98.2861 105.7940 0006085 130.9483 229.2239 14.51015131340299
GOKTURK 1A              
1 41875U 16073A   23060.40546198  .00001504  00000+0  30406-3 0  9995
2 41875  98.1485 316.3894 0001168  72.3004 287.8284 14.62783803332849
RESOURCESAT-2A          
1 41877U 16074A   23058.86831143  .00000017  00000+0  27578-4 0  9997
2 41877  98.6891 135.6962 0000548  11.9812 348.1355 14.21617514323055
